{
  "type": "FeatureCollection",
  "features": [
    {
      "type": "Feature",
      "properties": {
        "norad_id": 58701,
        "name": "TIANMU-1 16",
        "group": "weather",
        "lat": 73.82317337796495,
        "lon": 136.49147527728903,
        "alt_km": 487.3681921810148,
        "timestamp": "2025-12-08T10:52:02.591769+00:00",
        "meta_object_name": "TIANMU-1 16",
        "meta_object_id": "2024-004B",
        "meta_epoch": "2025-12-07T23:30:31.488768",
        "meta_mean_motion": 15.24335259,
        "meta_eccentricity": 0.00047457,
        "meta_inclination": 97.4567,
        "meta_ra_of_asc_node": 162.8607,
        "meta_arg_of_pericenter": 316.8076,
        "meta_mean_anomaly": 43.2789,
        "meta_ephemeris_type": 0,
        "meta_classification_type": "U",
        "meta_norad_cat_id": 58701,
        "meta_element_set_no": 999,
        "meta_rev_at_epoch": 10662,
        "meta_bstar": 0.00038187356,
        "meta_mean_motion_dot": 9.276e-05,
        "meta_mean_motion_ddot": 0,
        "tle_line1": "1 58701U 24004B   25341.97953112  .00009276  00000+0  38187-3 0  9996",
        "tle_line2": "2 58701  97.4567 162.8607 0004745 316.8076  43.2789 15.24335259106629"
      },
      "geometry": {
        "type": "Point",
        "coordinates": [
          136.49147527728903,
          73.82317337796495
        ]
      }
    },
    {
      "type": "Feature",
      "properties": {
        "norad_id": 58702,
        "name": "TIANMU-1 17",
        "group": "weather",
        "lat": 20.32559389286987,
        "lon": -13.478477897629192,
        "alt_km": 495.29115979568905,
        "timestamp": "2025-12-08T10:52:02.591779+00:00",
        "meta_object_name": "TIANMU-1 17",
        "meta_object_id": "2024-004C",
        "meta_epoch": "2025-12-07T23:08:32.465760",
        "meta_mean_motion": 15.24380051,
        "meta_eccentricity": 0.00039646,
        "meta_inclination": 97.4601,
        "meta_ra_of_asc_node": 163.2531,
        "meta_arg_of_pericenter": 321.0447,
        "meta_mean_anomaly": 39.0504,
        "meta_ephemeris_type": 0,
        "meta_classification_type": "U",
        "meta_norad_cat_id": 58702,
        "meta_element_set_no": 999,
        "meta_rev_at_epoch": 10661,
        "meta_bstar": 0.00036501369,
        "meta_mean_motion_dot": 8.874e-05,
        "meta_mean_motion_ddot": 0,
        "tle_line1": "1 58702U 24004C   25341.96426465  .00008874  00000+0  36501-3 0  9993",
        "tle_line2": "2 58702  97.4601 163.2531 0003964 321.0447  39.0504 15.24380051106619"
      },
      "geometry": {
        "type": "Point",
        "coordinates": [
          -13.478477897629192,
          20.32559389286987
        ]
      }
    },
    {
      "type": "Feature",
      "properties": {
        "norad_id": 58703,
        "name": "TIANMU-1 18",
        "group": "weather",
        "lat": -69.72936894185978,
        "lon": -36.8525083945841,
        "alt_km": 499.14917392074494,
        "timestamp": "2025-12-08T10:52:02.591789+00:00",
        "meta_object_name": "TIANMU-1 18",
        "meta_object_id": "2024-004D",
        "meta_epoch": "2025-12-07T22:44:27.650400",
        "meta_mean_motion": 15.24368974,
        "meta_eccentricity": 0.00033263,
        "meta_inclination": 97.4619,
        "meta_ra_of_asc_node": 163.4306,
        "meta_arg_of_pericenter": 322.2509,
        "meta_mean_anomaly": 37.8494,
        "meta_ephemeris_type": 0,
        "meta_classification_type": "U",
        "meta_norad_cat_id": 58703,
        "meta_element_set_no": 999,
        "meta_rev_at_epoch": 10661,
        "meta_bstar": 0.00035622282,
        "meta_mean_motion_dot": 8.655e-05,
        "meta_mean_motion_ddot": 0,
        "tle_line1": "1 58703U 24004D   25341.94754225  .00008655  00000+0  35622-3 0  9990",
        "tle_line2": "2 58703  97.4619 163.4306 0003326 322.2509  37.8494 15.24368974106619"
      },
      "geometry": {
        "type": "Point",
        "coordinates": [
          -36.8525083945841,
          -69.72936894185978
        ]
      }
    },
    {
      "type": "Feature",
      "properties": {
        "norad_id": 58990,
        "name": "INSAT-3DS",
        "group": "weather",
        "lat": -0.014247285235647233,
        "lon": -37.43379704666977,
        "alt_km": 35783.017442881726,
        "timestamp": "2025-12-08T10:52:02.591801+00:00",
        "meta_object_name": "INSAT-3DS",
        "meta_object_id": "2024-033A",
        "meta_epoch": "2025-12-07T21:55:38.755200",
        "meta_mean_motion": 1.00269567,
        "meta_eccentricity": 0.00017015,
        "meta_inclination": 0.007,
        "meta_ra_of_asc_node": 39.1989,
        "meta_arg_of_pericenter": 224.3969,
        "meta_mean_anomaly": 224.3322,
        "meta_ephemeris_type": 0,
        "meta_classification_type": "U",
        "meta_norad_cat_id": 58990,
        "meta_element_set_no": 999,
        "meta_rev_at_epoch": 4515,
        "meta_bstar": 0,
        "meta_mean_motion_dot": -1.53e-06,
        "meta_mean_motion_ddot": 0,
        "tle_line1": "1 58990U 24033A   25341.91364300 -.00000153  00000+0  00000+0 0  9992",
        "tle_line2": "2 58990   0.0070  39.1989 0001701 224.3969 224.3322  1.00269567 45152"
      },
      "geometry": {
        "type": "Point",
        "coordinates": [
          -37.43379704666977,
          -0.014247285235647233
        ]
      }
    },
    {
      "type": "Feature",
      "properties": {
        "norad_id": 59051,
        "name": "METEOR-M2 4",
        "group": "weather",
        "lat": -17.53718158783192,
        "lon": 116.66322871941003,
        "alt_km": 827.3652633369593,
        "timestamp": "2025-12-08T10:52:02.591814+00:00",
        "meta_object_name": "METEOR-M2 4",
        "meta_object_id": "2024-039A",
        "meta_epoch": "2025-12-07T22:07:24.474720",
        "meta_mean_motion": 14.22400065,
        "meta_eccentricity": 0.00073101,
        "meta_inclination": 98.6761,
        "meta_ra_of_asc_node": 298.9064,
        "meta_arg_of_pericenter": 12.2282,
        "meta_mean_anomaly": 347.9072,
        "meta_ephemeris_type": 0,
        "meta_classification_type": "U",
        "meta_norad_cat_id": 59051,
        "meta_element_set_no": 999,
        "meta_rev_at_epoch": 9207,
        "meta_bstar": 5.7543949e-05,
        "meta_mean_motion_dot": 8.5e-07,
        "meta_mean_motion_ddot": 0,
        "tle_line1": "1 59051U 24039A   25341.92181105  .00000085  00000+0  57544-4 0  9991",
        "tle_line2": "2 59051  98.6761 298.9064 0007310  12.2282 347.9072 14.22400065 92079"
      },
      "geometry": {
        "type": "Point",
        "coordinates": [
          116.66322871941003,
          -17.53718158783192
        ]
      }
    },
    {
      "type": "Feature",
      "properties": {
        "norad_id": 60133,
        "name": "GOES 19",
        "group": "weather",
        "lat": 0.0003096794316605209,
        "lon": 165.27170562214278,
        "alt_km": 35790.311653714816,
        "timestamp": "2025-12-08T10:52:02.591836+00:00",
        "meta_object_name": "GOES 19",
        "meta_object_id": "2024-119A",
        "meta_epoch": "2025-12-07T20:07:28.724160",
        "meta_mean_motion": 1.00271591,
        "meta_eccentricity": 0.0001346,
        "meta_inclination": 0.011,
        "meta_ra_of_asc_node": 94.0306,
        "meta_arg_of_pericenter": 207.9913,
        "meta_mean_anomaly": 1.5194,
        "meta_ephemeris_type": 0,
        "meta_classification_type": "U",
        "meta_norad_cat_id": 60133,
        "meta_element_set_no": 999,
        "meta_rev_at_epoch": 504,
        "meta_bstar": 0,
        "meta_mean_motion_dot": -2.45e-06,
        "meta_mean_motion_ddot": 0,
        "tle_line1": "1 60133U 24119A   25341.83852690 -.00000245  00000+0  00000+0 0  9996",
        "tle_line2": "2 60133   0.0110  94.0306 0001346 207.9913   1.5194  1.00271591  5049"
      },
      "geometry": {
        "type": "Point",
        "coordinates": [
          165.27170562214278,
          0.0003096794316605209
        ]
      }
    },
    {
      "type": "Feature",
      "properties": {
        "norad_id": 65815,
        "name": "FENGYUN 3H",
        "group": "weather",
        "lat": 63.55287308719113,
        "lon": 119.97298088653308,
        "alt_km": 819.0951816406077,
        "timestamp": "2025-12-08T10:52:02.591864+00:00",
        "meta_object_name": "FENGYUN 3H",
        "meta_object_id": "2025-219A",
        "meta_epoch": "2025-12-07T22:29:20.680224",
        "meta_mean_motion": 14.19902505,
        "meta_eccentricity": 6.085e-05,
        "meta_inclination": 98.6578,
        "meta_ra_of_asc_node": 281.6319,
        "meta_arg_of_pericenter": 81.2582,
        "meta_mean_anomaly": 278.8663,
        "meta_ephemeris_type": 0,
        "meta_classification_type": "U",
        "meta_norad_cat_id": 65815,
        "meta_element_set_no": 999,
        "meta_rev_at_epoch": 1024,
        "meta_bstar": 0.00010869283,
        "meta_mean_motion_dot": 1.88e-06,
        "meta_mean_motion_ddot": 0,
        "tle_line1": "1 65815U 25219A   25341.93704491  .00000188  00000+0  10869-3 0  9999",
        "tle_line2": "2 65815  98.6578 281.6319 0000608  81.2582 278.8663 14.19902505 10243"
      },
      "geometry": {
        "type": "Point",
        "coordinates": [
          119.97298088653308,
          63.55287308719113
        ]
      }
    }
  ]
}